{"fetched_at":"2026-03-29T16:36:15Z","count":15609,"tles":[{"name":"ONEWEB-0395","line1":"1 50475U 21132G   26087.90285369  .00000065  00000+0  14723-3 0  9995","line2":"2 50475  87.8891  37.0298 0001803  73.5340 286.5986 13.11419079205194","category":"Other"}]}