{
  "norad_id": 50475,
  "name": "ONEWEB-0395",
  "history": [
    {
      "epoch": "2026-03-28T21:40:06.558816Z",
      "apogee_km": 1219.0439830048626,
      "perigee_km": 1216.3049333930367,
      "latitude_deg": 6.713911390614419e-06,
      "longitude_deg": -114.3141572852872,
      "height_km": 1220.1725231251112,
      "semi_major_axis_km": 7595.811458198949,
      "eccentricity": 0.0001803,
      "inclination_deg": 87.8891,
      "raan_deg": 37.0298,
      "arg_perigee_deg": 73.534,
      "mean_anomaly_deg": 286.5986,
      "mean_motion_rev_day": 13.11419079
    }
  ]
}